#aV2007  1 29  0  0   .00000000      96 DD+AD WGS84 FIT  NGA
## 1412  86400.00000000   900.00000000 54129  .0000000000000
+   30     1  2  3  4  5  6  7  8  9 10 11 12 13 14 16 17 18
+         19 20 21 22 23 24 25 26 27 28 29 30 31  0  0  0  0
+          0  0  0  0  0  0  0  0  0  0  0  0  0  0  0  0  0
+          0  0  0  0  0  0  0  0  0  0  0  0  0  0  0  0  0
+          0  0  0  0  0  0  0  0  0  0  0  0  0  0  0  0  0
++         0  0  0  0  0  0  0  0  0  0  0  0  0  0  0  0  0
++         0  0  0  0  0  0  0  0  0  0  0  0  0  0  0  0  0
++         0  0  0  0  0  0  0  0  0  0  0  0  0  0  0  0  0
++         0  0  0  0  0  0  0  0  0  0  0  0  0  0  0  0  0
++         0  0  0  0  0  0  0  0  0  0  0  0  0  0  0  0  0
%c cc cc ccc ccc cccc cccc cccc cccc ccccc ccccc ccccc ccccc
%c cc cc ccc ccc cccc cccc cccc cccc ccccc ccccc ccccc ccccc
%f  0.0000000  0.000000000  0.00000000000  0.000000000000000
%f  0.0000000  0.000000000  0.00000000000  0.000000000000000
%i    0    0    0    0      0      0      0      0         0
%i    0    0    0    0      0      0      0      0         0
/*      NGA, ST. LOUIS,MO.                                  
/*   EPHEMERIS COMPUTED FROM  3 DAYS OF DATA                
/* CCCCCCCCCCCCCCCCCCCCCCCCCCCCCCCCCCCCCCCCCCCCCCCCCCCCCCCCC
/* CCCCCCCCCCCCCCCCCCCCCCCCCCCCCCCCCCCCCCCCCCCCCCCCCCCCCCCCC
*  2007  1 29 17 45   .00000000                                                 
P  1  -2536.512426  15775.191811  21414.892022    104.497875                    
V  1 -25339.810051   8226.656179  -9208.691346       .023609                    
P  2  -9177.544569 -20317.472975  14391.186802     77.689440                    
V  2  16083.797546   9645.226151  23240.306037       .034057                    
P  3   2982.574839  16221.367532 -20978.526581      5.521402                    
V  3 -23826.415037  11324.221347   5750.349883       .060239                    
P  4   5494.311989 -15072.200703  21054.545620       .804964                    
V  4  21457.373684  16392.127451   6477.496593       .024785                    
P  5 -14162.115636  -9605.254431  20121.000002     23.973275                    
V  5   2664.574696 -25986.062258 -10261.434357       .100109                    
P  6 -25070.452852   4973.810580   7505.070485    424.149090                    
V  6   7158.046441  -6848.059355  29120.786979      -.251484                    
P  7 -25032.679272   7669.084641   5077.033321    432.130170                    
V  7   4000.030868  -5671.947345  30227.235290      -.114994                    
P  8  14334.396826  -6804.241528 -21489.785411    -94.843428                    
V  8  20118.424487  17828.471756   7394.700910      -.014172                    
P  9 -21362.970245 -15997.456181   -496.048413     55.272482                    
V  9   1424.017372  -2071.060205 -31671.052933       .017406                    
P 10  -2623.956795 -24433.565459  -9754.195418     96.649770                    
V 10   4484.926360 -11739.957100  28823.674028       .005923                    
P 11  23757.768375  12158.064102   1117.447253      5.376301                    
V 11   -895.741012   4786.156212 -29995.303709       .013579                    
P 12 -12873.813774 -11128.696315  20509.862576    -56.811904                    
V 12   4549.312588 -25402.744508 -10944.454632       .049964                    
P 13  25418.301196  -6192.887656   4346.939616    137.939555                    
V 13  -4680.280816   3592.790438  31868.936324       .040353                    
P 14 -18068.886992  15322.837856  12024.393219      6.370007                    
V 14 -14730.957177   3787.125409 -27216.349366       .012974                    
P 16  -1630.637632  26186.165788  -3565.362471    117.194847                    
V 16  -3509.988585   4146.674518  31470.132701       .037410                    
P 17  17938.681478 -15741.147519  11526.639140     80.675731                    
V 17  14588.176360  -3036.985219 -26958.951872      -.012835                    
P 18 -15470.720871  10021.586060 -18872.555844   -253.862263                    
V 18   2876.858866 -24255.730420 -15447.221412       .000681                    
P 19  12604.948758  11073.157540 -20516.837773     62.227765                    
V 19 -24668.887267   9034.031064 -10138.328935       .042822                    
P 20  13797.594425   8589.343718  20919.131462    -22.151530                    
V 20  -4297.825411  26459.159461  -7950.486176      -.001365                    
P 21 -19407.220918   1023.894355 -18242.034193     69.852310                    
V 21 -16744.357214 -16174.722665  16262.003054       .010935                    
P 22 -11801.106573  21243.848309 -10540.126564    164.677909                    
V 22    -67.221804 -13910.041114 -27565.591531       .021544                    
P 23  22375.842806   1615.693710  14288.520198    147.819426                    
V 23 -16216.384493   8425.180309  24120.083499       .015094                    
P 24 -19972.635259 -17278.083115   -240.939545     72.871560                    
V 24   1695.229575  -2748.483430  31856.975500       .032349                    
P 25   5415.632063  18824.570283  18287.245553    366.771248                    
V 25 -19726.008633 -10864.995331  17553.022139      -.136161                    
P 26 -11391.784104 -11046.953566 -21814.288499    -17.879949                    
V 26  24896.294857  -9160.804441  -7967.890026      -.180816                    
P 27  20687.113717    648.983663 -16161.033947     91.195622                    
V 27  16698.093997  13855.224769  20841.453501       .021070                    
P 28  12877.542856 -18156.956093 -13901.824395      8.511033                    
V 28   -587.655230  18485.257965 -24489.931326      -.009627                    
P 29  -6680.397134 -12935.698956 -21998.835357    332.718312                    
V 29  26356.950520 -10559.517409  -1443.730920       .134143                    
P 30 -15547.517036   2254.043977  21101.230052     23.938643                    
V 30   2394.031090 -27475.609377   4742.900458       .010499                    
P 31  -2200.218677  16681.219255  20738.735235      2.289658                    
V 31 -20945.301807 -15251.280900  10195.424932       .046195                    
EOF
